     2.100          NAVIGATION                              RINEX VERSION / TYPE
fic2rin                                 03/03/2010 00:17:00 PGM / RUN BY / DATE
                                                            END OF HEADER
19 10  3  2  9 59 44.0 -.188620761037D-04 -.238742359215D-11  .000000000000D+00
     .440000000000D+02 -.566875000000D+02  .447304346307D-08 -.311425555841D+01
    -.291317701340D-05  .620868522674D-02  .119600445032D-04  .515371123123D+04
     .208784000000D+06 -.949949026108D-07 -.966761512926D-01  .651925802231D-07
     .958237203386D+00  .147281250000D+03 -.178702975948D+00 -.786282751833D-08
    -.443947063606D-09  .100000000000D+01  .157300000000D+04  .000000000000D+00
     .240000000000D+01  .000000000000D+00 -.149011611938D-07  .440000000000D+02
     .201606000000D+06  .400000000000D+01
22 10  3  2  9 59 44.0  .177910551429D-03 -.795807864051D-12  .000000000000D+00
     .120000000000D+02  .812500000000D+00  .548487132405D-08 -.203695652888D+01
    -.372529029846D-08  .508455117233D-02  .178627669811D-05  .515365324402D+04
     .208784000000D+06  .124797224998D-06  .195019919038D+01 -.242143869400D-07
     .935721181069D+00  .332250000000D+03 -.190253209966D+01 -.875393606515D-08
    -.860750139413D-10  .100000000000D+01  .157300000000D+04  .000000000000D+00
     .240000000000D+01  .000000000000D+00 -.176951289177D-07  .120000000000D+02
     .201606000000D+06  .400000000000D+01
 1 10  3  2 10  0  0.0 -.937627628446D-04 -.397903932026D-11  .000000000000D+00
     .900000000000D+02 -.265625000000D+01  .636740808525D-08 -.116959407619D+01
    -.106170773506D-06  .438090437092D-02  .301562249660D-05  .515478807640D+04
     .208800000000D+06  .745058059692D-07 -.122617754434D+01  .633299350739D-07
     .963452355658D+00  .323531250000D+03  .877824220217D+00 -.853535553182D-08
     .632169189527D-10  .100000000000D+01  .157300000000D+04  .000000000000D+00
     .240000000000D+01  .630000000000D+02 -.190921127796D-07  .900000000000D+02
     .201606000000D+06  .400000000000D+01
 2 10  3  2 10  0  0.0  .232093501836D-03  .397903932026D-11  .000000000000D+00
     .102000000000D+03  .111437500000D+03  .481305762603D-08  .267040422505D+01
     .575371086597D-05  .938526832033D-02  .118818134069D-04  .515379247093D+04
     .208800000000D+06 -.128522515297D-06  .858005944649D+00  .122934579849D-06
     .940290036614D+00  .138343750000D+03  .297647668145D+01 -.817998358629D-08
     .379658671450D-09  .100000000000D+01  .157300000000D+04  .000000000000D+00
     .240000000000D+01  .000000000000D+00 -.172294676304D-07  .102000000000D+03
     .201606000000D+06  .400000000000D+01
 3 10  3  2 10  0  0.0  .522661488503D-03  .500222085975D-11  .000000000000D+00
     .680000000000D+02 -.874062500000D+02  .525093300815D-08  .253096639167D+01
    -.464916229248D-05  .128718500491D-01  .972114503384D-05  .515370086670D+04
     .208800000000D+06 -.372529029846D-07 -.292749973046D+00 -.175088644028D-06
     .927375103227D+00  .172343750000D+03  .981661646628D+00 -.823891461244D-08
    -.541808282775D-09  .100000000000D+01  .157300000000D+04  .000000000000D+00
     .240000000000D+01  .000000000000D+00 -.419095158577D-08  .680000000000D+02
     .201606000000D+06  .400000000000D+01
 4 10  3  2 10  0  0.0  .271387398243D-04  .886757334229D-11  .000000000000D+00
     .740000000000D+02  .108375000000D+03  .493306262472D-08 -.605963081800D+00
     .565312802792D-05  .911920284852D-02  .108275562525D-04  .515365007591D+04
     .208800000000D+06  .135973095894D-06  .875987740154D+00  .143423676491D-06
     .939427497189D+00  .159093750000D+03  .597384490685D+00 -.844428030960D-08
     .377872882779D-09  .100000000000D+01  .157300000000D+04  .000000000000D+00
     .240000000000D+01  .000000000000D+00 -.605359673500D-08  .740000000000D+02
     .201606000000D+06  .400000000000D+01
 5 10  3  2 10  0  0.0 -.543473288417D-05  .181898940355D-11  .000000000000D+00
     .820000000000D+02  .684375000000D+01  .510056960205D-08 -.215788657602D+01
     .311061739922D-06  .191055692267D-02  .207498669624D-05  .515365258217D+04
     .208800000000D+06 -.521540641785D-07  .191759841940D+01  .558793544769D-08
     .958992014987D+00  .340687500000D+03  .345062178299D+00 -.866750389347D-08
    -.500020827875D-11  .100000000000D+01  .157300000000D+04  .000000000000D+00
     .340000000000D+01  .000000000000D+00 -.884756445885D-08  .820000000000D+02
     .201606000000D+06  .400000000000D+01
 6 10  3  2 10  0  0.0  .696011353284D-03 -.636646291241D-11  .000000000000D+00
     .110000000000D+02 -.688437500000D+02  .511199864955D-08 -.149615422190D+01
    -.353716313839D-05  .605699617881D-02  .106319785118D-04  .515367058945D+04
     .208800000000D+06 -.201165676117D-06 -.222874499983D+00  .949949026108D-07
     .934787529196D+00  .162437500000D+03 -.113406646109D+01 -.837856328651D-08
    -.488591780380D-09  .100000000000D+01  .157300000000D+04  .000000000000D+00
     .240000000000D+01  .000000000000D+00 -.465661287308D-08  .110000000000D+02
     .201606000000D+06  .400000000000D+01
 7 10  3  2 10  0  0.0  .217510387301D-05 -.454747350886D-12  .000000000000D+00
     .450000000000D+02  .747500000000D+02  .419088885306D-08  .994999696885D+00
     .386685132980D-05  .325947871897D-02  .113528221846D-04  .515372656441D+04
     .208800000000D+06  .298023223877D-07 -.226615968562D+01  .128522515297D-06
     .970714316113D+00  .165781250000D+03  .307128031515D+01 -.791782980939D-08
     .602167939855D-09  .100000000000D+01  .157300000000D+04  .000000000000D+00
     .240000000000D+01  .000000000000D+00 -.107102096081D-07  .450000000000D+02
     .201606000000D+06  .400000000000D+01
 8 10  3  2 10  0  0.0  .378675758839D-05  .341060513165D-12  .000000000000D+00
     .400000000000D+01  .717187500000D+02  .382408786004D-08  .394021877096D+00
     .376068055630D-05  .109529027250D-01  .107493251562D-04  .515371406555D+04
     .208800000000D+06  .208616256714D-06 -.220004383741D+01  .577419996262D-07
     .991985491697D+00  .188000000000D+03  .309094122755D+01 -.786104172966D-08
     .670742224820D-09  .100000000000D+01  .157300000000D+04  .000000000000D+00
     .240000000000D+01  .000000000000D+00 -.419095158577D-08  .400000000000D+01
     .201606000000D+06  .400000000000D+01
10 10  3  2 10  0  0.0 -.368263572454D-04 -.102318153949D-11  .000000000000D+00
     .480000000000D+02 -.237500000000D+01  .517271546436D-08 -.214991059451D+01
    -.206753611565D-06  .916493427940D-02  .173225998878D-05  .515345497894D+04
     .208800000000D+06  .745058059692D-08  .194386220230D+01 -.931322574615D-07
     .954044646943D+00  .343125000000D+03  .655859198848D+00 -.863500253966D-08
     .275011455331D-10  .100000000000D+01  .157300000000D+04  .000000000000D+00
     .240000000000D+01  .000000000000D+00 -.279396772385D-08  .480000000000D+02
     .201606000000D+06  .400000000000D+01
11 10  3  2 10  0  0.0 -.482453033328D-04 -.216004991671D-11  .000000000000D+00
     .190000000000D+02  .751562500000D+02  .606346685345D-08  .907529671511D+00
     .414252281189D-05  .105080796639D-01  .118650496006D-04  .515373321533D+04
     .208800000000D+06 -.126659870148D-06  .643785117126D+00  .102445483208D-06
     .888916335733D+00  .113093750000D+03  .794084236567D+00 -.886286917408D-08
     .689314426998D-10  .100000000000D+01  .157300000000D+04  .000000000000D+00
     .240000000000D+01  .000000000000D+00 -.116415321827D-07  .190000000000D+02
     .201606000000D+06  .400000000000D+01
12 10  3  2 10  0  0.0 -.143744517118D-03  .466116034659D-11  .000000000000D+00
     .142000000000D+03 -.521875000000D+01  .503556689443D-08  .108511794192D+01
    -.316649675369D-06  .345666718204D-02  .319629907608D-05  .515373100471D+04
     .208800000000D+06  .670552253723D-07 -.121228783499D+01 -.186264514923D-08
     .969537470202D+00  .324468750000D+03 -.534905958603D+00 -.848713923770D-08
     .232152527227D-10  .100000000000D+01  .157300000000D+04  .000000000000D+00
     .240000000000D+01  .000000000000D+00 -.121071934700D-07  .142000000000D+03
     .201606000000D+06  .400000000000D+01
13 10  3  2 10  0  0.0  .306259840727D-03 -.113686837722D-12  .000000000000D+00
     .960000000000D+02 -.795937500000D+02  .356086260993D-08 -.277439582548D+01
    -.411458313465D-05  .421133090276D-02  .117551535368D-04  .515358374977D+04
     .208800000000D+06  .577419996262D-07  .303439014109D+01  .521540641785D-07
     .993773477489D+00  .168750000000D+03  .163963428812D+01 -.753638534927D-08
    -.389659088008D-09  .100000000000D+01  .157300000000D+04  .000000000000D+00
     .340000000000D+01  .000000000000D+00 -.111758708954D-07  .960000000000D+02
     .201606000000D+06  .400000000000D+01
15 10  3  2 10  0  0.0 -.302120111883D-03  .352429196937D-11  .000000000000D+00
     .310000000000D+02 -.101156250000D+03  .450304471274D-08 -.295290422015D+01
    -.511109828949D-05  .242079840973D-02  .105239450932D-04  .515373686409D+04
     .208800000000D+06  .316649675369D-07  .295189963870D+01  .149011611938D-07
     .954727961349D+00  .174031250000D+03 -.253871450468D+00 -.814855370568D-08
    -.442518432669D-09  .100000000000D+01  .157300000000D+04  .000000000000D+00
     .240000000000D+01  .000000000000D+00 -.977888703346D-08  .310000000000D+02
     .201606000000D+06  .400000000000D+01
16 10  3  2 10  0  0.0 -.468273647130D-04 -.397903932026D-11  .000000000000D+00
     .830000000000D+02 -.984375000000D+01  .491734768441D-08 -.125391714972D+01
    -.705942511559D-06  .572522322182D-02  .323168933392D-05  .515371205139D+04
     .208800000000D+06  .353902578354D-07 -.119496156868D+01 -.707805156708D-07
     .970818642653D+00  .322125000000D+03 -.269608531306D+00 -.850821154402D-08
     .710743891050D-10  .100000000000D+01  .157300000000D+04  .000000000000D+00
     .240000000000D+01  .000000000000D+00 -.977888703346D-08  .830000000000D+02
     .201606000000D+06  .400000000000D+01
